{"type": "FeatureCollection", "features": [ {"type": "Feature", "properties": {"norad_id": 30845, "name": "FENGYUN 1C DEB", "group": "fengyun-1c-debris", "lat": 80.43485278799622, "lon": -129.94873044435693, "alt_km": 1106.8713053702986, "timestamp": "2025-12-14T16:47:40.962831+00:00", "meta": {"OBJECT_NAME": "FENGYUN 1C DEB", "OBJECT_ID": "1999-025AWF", "EPOCH": "2025-12-13T05:44:31.180128", "MEAN_MOTION": 13.768586, "ECCENTRICITY": 0.01920353, "INCLINATION": 98.3793, "RA_OF_ASC_NODE": 347.7601, "ARG_OF_PERICENTER": 269.1352, "MEAN_ANOMALY": 150.3978, "EPHEMERIS_TYPE": 0, "CLASSIFICATION_TYPE": "U", "NORAD_CAT_ID": 30845, "ELEMENT_SET_NO": 999, "REV_AT_EPOCH": 94250, "BSTAR": 0.00051696086, "MEAN_MOTION_DOT": 5.45e-06, "MEAN_MOTION_DDOT": 0}, "tle": {"line1": "1 30845U 99025AWF 25347.23924977  .00000545  00000+0  51696-3 0  9992", "line2": "2 30845  98.3793 347.7601 0192035 269.1352 150.3978 13.76858600942504"}}, "geometry": {"type": "Point", "coordinates": [-129.94873044435693, 80.43485278799622]}}, {"type": "Feature", "properties": {"norad_id": 30846, "name": "FENGYUN 1C DEB", "group": "fengyun-1c-debris", "lat": 47.93403870245589, "lon": 151.6013729237075, "alt_km": 740.9226825496962, "timestamp": "2025-12-14T16:47:40.962843+00:00", "meta": {"OBJECT_NAME": "FENGYUN 1C DEB", "OBJECT_ID": "1999-025AWG", "EPOCH": "2025-12-13T22:57:29.664576", "MEAN_MOTION": 14.41552068, "ECCENTRICITY": 0.00539911, "INCLINATION": 99.3208, "RA_OF_ASC_NODE": 161.2763, "ARG_OF_PERICENTER": 332.8895, "MEAN_ANOMALY": 180.7088, "EPHEMERIS_TYPE": 0, "CLASSIFICATION_TYPE": "U", "NORAD_CAT_ID": 30846, "ELEMENT_SET_NO": 999, "REV_AT_EPOCH": 97947, "BSTAR": 0.00098059883, "MEAN_MOTION_DOT": 3.192e-05, "MEAN_MOTION_DDOT": 0}, "tle": {"line1": "1 30846U 99025AWG 25347.95659334  .00003192  00000+0  98060-3 0  9991", "line2": "2 30846  99.3208 161.2763 0053991 332.8895 180.7088 14.41552068979479"}}, "geometry": {"type": "Point", "coordinates": [151.6013729237075, 47.93403870245589]}}, {"type": "Feature", "properties": {"norad_id": 30847, "name": "FENGYUN 1C DEB", "group": "fengyun-1c-debris", "lat": -52.097065749253936, "lon": 160.20206824941386, "alt_km": 796.7293082033293, "timestamp": "2025-12-14T16:47:40.962854+00:00", "meta": {"OBJECT_NAME": "FENGYUN 1C DEB", "OBJECT_ID": "1999-025AWH", "EPOCH": "2025-12-13T04:01:13.837728", "MEAN_MOTION": 14.17027087, "ECCENTRICITY": 0.00654841, "INCLINATION": 98.7316, "RA_OF_ASC_NODE": 147.3131, "ARG_OF_PERICENTER": 326.9533, "MEAN_ANOMALY": 88.188, "EPHEMERIS_TYPE": 0, "CLASSIFICATION_TYPE": "U", "NORAD_CAT_ID": 30847, "ELEMENT_SET_NO": 999, "REV_AT_EPOCH": 96061, "BSTAR": 0.0027996212, "MEAN_MOTION_DOT": 5.708e-05, "MEAN_MOTION_DDOT": 0}, "tle": {"line1": "1 30847U 99025AWH 25347.16752127  .00005708  00000+0  27996-2 0  9993", "line2": "2 30847  98.7316 147.3131 0065484 326.9533  88.1880 14.17027087960618"}}, "geometry": {"type": "Point", "coordinates": [160.20206824941386, -52.097065749253936]}}, {"type": "Feature", "properties": {"norad_id": 30848, "name": "FENGYUN 1C DEB", "group": "fengyun-1c-debris", "lat": 9.021028232798967, "lon": 5.081781228485662, "alt_km": 807.7071894203737, "timestamp": "2025-12-14T16:47:40.962865+00:00", "meta": {"OBJECT_NAME": "FENGYUN 1C DEB", "OBJECT_ID": "1999-025AWJ", "EPOCH": "2025-12-12T12:06:18.747360", "MEAN_MOTION": 14.34482852, "ECCENTRICITY": 0.00438482, "INCLINATION": 99.0599, "RA_OF_ASC_NODE": 181.3298, "ARG_OF_PERICENTER": 336.4122, "MEAN_ANOMALY": 23.505, "EPHEMERIS_TYPE": 0, "CLASSIFICATION_TYPE": "U", "NORAD_CAT_ID": 30848, "ELEMENT_SET_NO": 999, "REV_AT_EPOCH": 97303, "BSTAR": 0.0018094633, "MEAN_MOTION_DOT": 5.111e-05, "MEAN_MOTION_DDOT": 0}, "tle": {"line1": "1 30848U 99025AWJ 25346.50438365  .00005111  00000+0  18095-2 0  9994", "line2": "2 30848  99.0599 181.3298 0043848 336.4122  23.5050 14.34482852973034"}}, "geometry": {"type": "Point", "coordinates": [5.081781228485662, 9.021028232798967]}}, {"type": "Feature", "properties": {"norad_id": 30849, "name": "FENGYUN 1C DEB", "group": "fengyun-1c-debris", "lat": 64.87901344387917, "lon": -111.39466372761714, "alt_km": 836.1146576803085, "timestamp": "2025-12-14T16:47:40.962878+00:00", "meta": {"OBJECT_NAME": "FENGYUN 1C DEB", "OBJECT_ID": "1999-025AWK", "EPOCH": "2025-12-13T15:35:34.723680", "MEAN_MOTION": 14.18863966, "ECCENTRICITY": 0.00480004, "INCLINATION": 99.0478, "RA_OF_ASC_NODE": 47.6675, "ARG_OF_PERICENTER": 3.5906, "MEAN_ANOMALY": 148.6916, "EPHEMERIS_TYPE": 0, "CLASSIFICATION_TYPE": "U", "NORAD_CAT_ID": 30849, "ELEMENT_SET_NO": 999, "REV_AT_EPOCH": 96385, "BSTAR": 0.0016925655, "MEAN_MOTION_DOT": 3.519e-05, "MEAN_MOTION_DDOT": 0}, "tle": {"line1": "1 30849U 99025AWK 25347.64970745  .00003519  00000+0  16926-2 0  9995", "line2": "2 30849  99.0478  47.6675 0048000   3.5906 148.6916 14.18863966963851"}}, "geometry": {"type": "Point", "coordinates": [-111.39466372761714, 64.87901344387917]}}, {"type": "Feature", "properties": {"norad_id": 30850, "name": "FENGYUN 1C DEB", "group": "fengyun-1c-debris", "lat": 24.70421107375232, "lon": -149.80501191366963, "alt_km": 913.9280728306212, "timestamp": "2025-12-14T16:47:40.962891+00:00", "meta": {"OBJECT_NAME": "FENGYUN 1C DEB", "OBJECT_ID": "1999-025AWL", "EPOCH": "2025-12-13T13:41:17.908224", "MEAN_MOTION": 14.16294958, "ECCENTRICITY": 0.01092353, "INCLINATION": 98.3951, "RA_OF_ASC_NODE": 213.0251, "ARG_OF_PERICENTER": 195.4432, "MEAN_ANOMALY": 194.5711, "EPHEMERIS_TYPE": 0, "CLASSIFICATION_TYPE": "U", "NORAD_CAT_ID": 30850, "ELEMENT_SET_NO": 999, "REV_AT_EPOCH": 95810, "BSTAR": 0.0024297574, "MEAN_MOTION_DOT": 5.069e-05, "MEAN_MOTION_DDOT": 0}, "tle": {"line1": "1 30850U 99025AWL 25347.57034616  .00005069  00000+0  24298-2 0  9990", "line2": "2 30850  98.3951 213.0251 0109235 195.4432 194.5711 14.16294958958105"}}, "geometry": {"type": "Point", "coordinates": [-149.80501191366963, 24.70421107375232]}}, {"type": "Feature", "properties": {"norad_id": 30852, "name": "FENGYUN 1C DEB", "group": "fengyun-1c-debris", "lat": -31.259228803222804, "lon": 11.748327430033942, "alt_km": 870.7797700078218, "timestamp": "2025-12-14T16:47:40.962901+00:00", "meta": {"OBJECT_NAME": "FENGYUN 1C DEB", "OBJECT_ID": "1999-025AWN", "EPOCH": "2025-12-13T23:55:04.389312", "MEAN_MOTION": 14.10287036, "ECCENTRICITY": 0.00558766, "INCLINATION": 98.7335, "RA_OF_ASC_NODE": 5.7113, "ARG_OF_PERICENTER": 230.9627, "MEAN_ANOMALY": 128.6563, "EPHEMERIS_TYPE": 0, "CLASSIFICATION_TYPE": "U", "NORAD_CAT_ID": 30852, "ELEMENT_SET_NO": 999, "REV_AT_EPOCH": 96400, "BSTAR": 0.00062504453, "MEAN_MOTION_DOT": 1.082e-05, "MEAN_MOTION_DDOT": 0}, "tle": {"line1": "1 30852U 99025AWN 25347.99657858  .00001082  00000+0  62504-3 0  9991", "line2": "2 30852  98.7335   5.7113 0055876 230.9627 128.6563 14.10287036964004"}}, "geometry": {"type": "Point", "coordinates": [11.748327430033942, -31.259228803222804]}}, {"type": "Feature", "properties": {"norad_id": 30856, "name": "FENGYUN 1C DEB", "group": "fengyun-1c-debris", "lat": 13.130133326486503, "lon": 171.49707831802246, "alt_km": 786.9341132578074, "timestamp": "2025-12-14T16:47:40.962911+00:00", "meta": {"OBJECT_NAME": "FENGYUN 1C DEB", "OBJECT_ID": "1999-025AWS", "EPOCH": "2025-12-13T01:29:03.445152", "MEAN_MOTION": 14.46190819, "ECCENTRICITY": 0.00880801, "INCLINATION": 98.2006, "RA_OF_ASC_NODE": 171.8401, "ARG_OF_PERICENTER": 238.0329, "MEAN_ANOMALY": 251.8848, "EPHEMERIS_TYPE": 0, "CLASSIFICATION_TYPE": "U", "NORAD_CAT_ID": 30856, "ELEMENT_SET_NO": 999, "REV_AT_EPOCH": 96530, "BSTAR": 0.0070896281, "MEAN_MOTION_DOT": 0.00026656, "MEAN_MOTION_DDOT": 0}, "tle": {"line1": "1 30856U 99025AWS 25347.06184543  .00026656  00000+0  70896-2 0  9995", "line2": "2 30856  98.2006 171.8401 0088080 238.0329 251.8848 14.46190819965304"}}, "geometry": {"type": "Point", "coordinates": [171.49707831802246, 13.130133326486503]}}, {"type": "Feature", "properties": {"norad_id": 30857, "name": "FENGYUN 1C DEB", "group": "fengyun-1c-debris", "lat": -61.02218343790691, "lon": 142.01384755585048, "alt_km": 707.0910222029661, "timestamp": "2025-12-14T16:47:40.962921+00:00", "meta": {"OBJECT_NAME": "FENGYUN 1C DEB", "OBJECT_ID": "1999-025AWT", "EPOCH": "2025-12-10T22:20:28.597056", "MEAN_MOTION": 14.51403304, "ECCENTRICITY": 0.0041899, "INCLINATION": 98.9745, "RA_OF_ASC_NODE": 334.5727, "ARG_OF_PERICENTER": 300.5616, "MEAN_ANOMALY": 59.1445, "EPHEMERIS_TYPE": 0, "CLASSIFICATION_TYPE": "U", "NORAD_CAT_ID": 30857, "ELEMENT_SET_NO": 999, "REV_AT_EPOCH": 96697, "BSTAR": 0.0076916, "MEAN_MOTION_DOT": 0.0003112, "MEAN_MOTION_DDOT": 0}, "tle": {"line1": "1 30857U 99025AWT 25344.93088654  .00031120  00000+0  76916-2 0  9996", "line2": "2 30857  98.9745 334.5727 0041899 300.5616  59.1445 14.51403304966970"}}, "geometry": {"type": "Point", "coordinates": [142.01384755585048, -61.02218343790691]}}, {"type": "Feature", "properties": {"norad_id": 30858, "name": "FENGYUN 1C DEB", "group": "fengyun-1c-debris", "lat": 4.750841945649812, "lon": 45.57574815595756, "alt_km": 838.6853778422073, "timestamp": "2025-12-14T16:47:40.962931+00:00", "meta": {"OBJECT_NAME": "FENGYUN 1C DEB", "OBJECT_ID": "1999-025AWU", "EPOCH": "2025-12-13T19:05:16.931904", "MEAN_MOTION": 14.17782716, "ECCENTRICITY": 0.00307807, "INCLINATION": 98.7992, "RA_OF_ASC_NODE": 45.4175, "ARG_OF_PERICENTER": 106.9198, "MEAN_ANOMALY": 324.6354, "EPHEMERIS_TYPE": 0, "CLASSIFICATION_TYPE": "U", "NORAD_CAT_ID": 30858, "ELEMENT_SET_NO": 999, "REV_AT_EPOCH": 96995, "BSTAR": 0.00051647125, "MEAN_MOTION_DOT": 1.014e-05, "MEAN_MOTION_DDOT": 0}, "tle": {"line1": "1 30858U 99025AWU 25347.79533486  .00001014  00000+0  51647-3 0  9996", "line2": "2 30858  98.7992  45.4175 0030780 106.9198 324.6354 14.17782716969957"}}, "geometry": {"type": "Point", "coordinates": [45.57574815595756, 4.750841945649812]}}]}